{"type": "FeatureCollection", "features": [ {"type": "Feature", "properties": {"norad_id": 39634, "name": "SENTINEL-1A", "group": "resource", "lat": -7.950539492554494, "lon": 3.848887474279923, "alt_km": 699.714502668734, "timestamp": "2025-12-23T14:49:08.986543+00:00", "meta": {"OBJECT_NAME": "SENTINEL-1A", "OBJECT_ID": "2014-016A", "EPOCH": "2025-12-23T06:37:38.377632", "MEAN_MOTION": 14.592017, "ECCENTRICITY": 0.00012715, "INCLINATION": 98.1796, "RA_OF_ASC_NODE": 2.3616, "ARG_OF_PERICENTER": 83.2884, "MEAN_ANOMALY": 276.8461, "EPHEMERIS_TYPE": 0, "CLASSIFICATION_TYPE": "U", "NORAD_CAT_ID": 39634, "ELEMENT_SET_NO": 999, "REV_AT_EPOCH": 62436, "BSTAR": 4.3701162e-05, "MEAN_MOTION_DOT": 1.6e-06, "MEAN_MOTION_DDOT": 0}, "tle": {"line1": "1 39634U 14016A   25357.27613863  .00000160  00000+0  43701-4 0  9990", "line2": "2 39634  98.1796   2.3616 0001271  83.2884 276.8461 14.59201700624363"}}, "geometry": {"type": "Point", "coordinates": [3.848887474279923, -7.950539492554494]}}, {"type": "Feature", "properties": {"norad_id": 39731, "name": "KAZEOSAT 1", "group": "resource", "lat": 16.37270483643346, "lon": 66.80984513851315, "alt_km": 752.1288873252988, "timestamp": "2025-12-23T14:49:08.986555+00:00", "meta": {"OBJECT_NAME": "KAZEOSAT 1", "OBJECT_ID": "2014-024A", "EPOCH": "2025-12-23T08:04:53.960160", "MEAN_MOTION": 14.42068191, "ECCENTRICITY": 0.00012106, "INCLINATION": 98.3424, "RA_OF_ASC_NODE": 69.0063, "ARG_OF_PERICENTER": 97.7524, "MEAN_ANOMALY": 262.3803, "EPHEMERIS_TYPE": 0, "CLASSIFICATION_TYPE": "U", "NORAD_CAT_ID": 39731, "ELEMENT_SET_NO": 999, "REV_AT_EPOCH": 61321, "BSTAR": 8.6266251e-05, "MEAN_MOTION_DOT": 2.4e-06, "MEAN_MOTION_DDOT": 0}, "tle": {"line1": "1 39731U 14024A   25357.33673565  .00000240  00000+0  86266-4 0  9991", "line2": "2 39731  98.3424  69.0063 0001210  97.7524 262.3803 14.42068191613210"}}, "geometry": {"type": "Point", "coordinates": [66.80984513851315, 16.37270483643346]}}, {"type": "Feature", "properties": {"norad_id": 39766, "name": "ALOS-2", "group": "resource", "lat": -74.75892366758178, "lon": 123.04665439285013, "alt_km": 639.3146336233758, "timestamp": "2025-12-23T14:49:08.986566+00:00", "meta": {"OBJECT_NAME": "ALOS-2", "OBJECT_ID": "2014-029A", "EPOCH": "2025-12-23T07:03:02.167776", "MEAN_MOTION": 14.79467889, "ECCENTRICITY": 0.00014177, "INCLINATION": 97.9226, "RA_OF_ASC_NODE": 91.9903, "ARG_OF_PERICENTER": 102.368, "MEAN_ANOMALY": 257.769, "EPHEMERIS_TYPE": 0, "CLASSIFICATION_TYPE": "U", "NORAD_CAT_ID": 39766, "ELEMENT_SET_NO": 999, "REV_AT_EPOCH": 62557, "BSTAR": 0.00028495007, "MEAN_MOTION_DOT": 2.077e-05, "MEAN_MOTION_DDOT": 0}, "tle": {"line1": "1 39766U 14029A   25357.29377509  .00002077  00000+0  28495-3 0  9997", "line2": "2 39766  97.9226  91.9903 0001417 102.3680 257.7690 14.79467889625576"}}, "geometry": {"type": "Point", "coordinates": [123.04665439285013, -74.75892366758178]}}, {"type": "Feature", "properties": {"norad_id": 40010, "name": "KAZEOSAT 2", "group": "resource", "lat": 55.202932661187766, "lon": -169.63182683515438, "alt_km": 610.0915289597051, "timestamp": "2025-12-23T14:49:08.986577+00:00", "meta": {"OBJECT_NAME": "KAZEOSAT 2", "OBJECT_ID": "2014-033A", "EPOCH": "2025-12-23T06:28:59.136096", "MEAN_MOTION": 14.85185223, "ECCENTRICITY": 0.00085611, "INCLINATION": 97.5495, "RA_OF_ASC_NODE": 201.0406, "ARG_OF_PERICENTER": 169.9313, "MEAN_ANOMALY": 190.2076, "EPHEMERIS_TYPE": 0, "CLASSIFICATION_TYPE": "U", "NORAD_CAT_ID": 40010, "ELEMENT_SET_NO": 999, "REV_AT_EPOCH": 62284, "BSTAR": 0.0001369791, "MEAN_MOTION_DOT": 1.124e-05, "MEAN_MOTION_DDOT": 0}, "tle": {"line1": "1 40010U 14033A   25357.27012889  .00001124  00000+0  13698-3 0  9992", "line2": "2 40010  97.5495 201.0406 0008561 169.9313 190.2076 14.85185223622847"}}, "geometry": {"type": "Point", "coordinates": [-169.63182683515438, 55.202932661187766]}}, {"type": "Feature", "properties": {"norad_id": 40011, "name": "HODOYOSHI-4", "group": "resource", "lat": -54.359643624082814, "lon": -4.682054480262669, "alt_km": 607.2472073237841, "timestamp": "2025-12-23T14:49:08.986589+00:00", "meta": {"OBJECT_NAME": "HODOYOSHI-4", "OBJECT_ID": "2014-033B", "EPOCH": "2025-12-23T07:18:34.904160", "MEAN_MOTION": 14.87518814, "ECCENTRICITY": 0.0023978, "INCLINATION": 97.5408, "RA_OF_ASC_NODE": 185.6673, "ARG_OF_PERICENTER": 165.0119, "MEAN_ANOMALY": 195.1814, "EPHEMERIS_TYPE": 0, "CLASSIFICATION_TYPE": "U", "NORAD_CAT_ID": 40011, "ELEMENT_SET_NO": 999, "REV_AT_EPOCH": 62265, "BSTAR": 0.00020791647, "MEAN_MOTION_DOT": 1.843e-05, "MEAN_MOTION_DDOT": 0}, "tle": {"line1": "1 40011U 14033B   25357.30457065  .00001843  00000+0  20792-3 0  9997", "line2": "2 40011  97.5408 185.6673 0023978 165.0119 195.1814 14.87518814622656"}}, "geometry": {"type": "Point", "coordinates": [-4.682054480262669, -54.359643624082814]}}, {"type": "Feature", "properties": {"norad_id": 40013, "name": "DEIMOS-2", "group": "resource", "lat": -65.78968569980405, "lon": 35.76936631054051, "alt_km": 596.6387442975056, "timestamp": "2025-12-23T14:49:08.986600+00:00", "meta": {"OBJECT_NAME": "DEIMOS-2", "OBJECT_ID": "2014-033D", "EPOCH": "2025-12-23T05:40:27.410304", "MEAN_MOTION": 14.93016219, "ECCENTRICITY": 0.00014741, "INCLINATION": 97.6063, "RA_OF_ASC_NODE": 232.6905, "ARG_OF_PERICENTER": 101.6553, "MEAN_ANOMALY": 258.4833, "EPHEMERIS_TYPE": 0, "CLASSIFICATION_TYPE": "U", "NORAD_CAT_ID": 40013, "ELEMENT_SET_NO": 999, "REV_AT_EPOCH": 61146, "BSTAR": 0.00016841381, "MEAN_MOTION_DOT": 1.697e-05, "MEAN_MOTION_DDOT": 0}, "tle": {"line1": "1 40013U 14033D   25357.23642836  .00001697  00000+0  16841-3 0  9990", "line2": "2 40013  97.6063 232.6905 0001474 101.6553 258.4833 14.93016219611462"}}, "geometry": {"type": "Point", "coordinates": [35.76936631054051, -65.78968569980405]}}, {"type": "Feature", "properties": {"norad_id": 40015, "name": "HODOYOSHI-3", "group": "resource", "lat": 54.596675624513715, "lon": 152.12221300738668, "alt_km": 629.5562484001193, "timestamp": "2025-12-23T14:49:08.986624+00:00", "meta": {"OBJECT_NAME": "HODOYOSHI-3", "OBJECT_ID": "2014-033F", "EPOCH": "2025-12-23T04:51:55.144512", "MEAN_MOTION": 14.84840602, "ECCENTRICITY": 0.00324001, "INCLINATION": 97.6205, "RA_OF_ASC_NODE": 162.5832, "ARG_OF_PERICENTER": 212.3605, "MEAN_ANOMALY": 147.5624, "EPHEMERIS_TYPE": 0, "CLASSIFICATION_TYPE": "U", "NORAD_CAT_ID": 40015, "ELEMENT_SET_NO": 999, "REV_AT_EPOCH": 62150, "BSTAR": 0.00018363996, "MEAN_MOTION_DOT": 1.522e-05, "MEAN_MOTION_DDOT": 0}, "tle": {"line1": "1 40015U 14033F   25357.20272158  .00001522  00000+0  18364-3 0  9994", "line2": "2 40015  97.6205 162.5832 0032400 212.3605 147.5624 14.84840602621506"}}, "geometry": {"type": "Point", "coordinates": [152.12221300738668, 54.596675624513715]}}, {"type": "Feature", "properties": {"norad_id": 40053, "name": "SPOT 7", "group": "resource", "lat": -79.39043859359474, "lon": 108.84190680609957, "alt_km": 699.1619352091511, "timestamp": "2025-12-23T14:49:08.986638+00:00", "meta": {"OBJECT_NAME": "SPOT 7", "OBJECT_ID": "2014-034A", "EPOCH": "2025-12-23T06:58:45.820704", "MEAN_MOTION": 14.60746445, "ECCENTRICITY": 0.00015507, "INCLINATION": 98.0893, "RA_OF_ASC_NODE": 59.123, "ARG_OF_PERICENTER": 82.5656, "MEAN_ANOMALY": 277.5721, "EPHEMERIS_TYPE": 0, "CLASSIFICATION_TYPE": "U", "NORAD_CAT_ID": 40053, "ELEMENT_SET_NO": 999, "REV_AT_EPOCH": 61145, "BSTAR": 0.00012970037, "MEAN_MOTION_DOT": 5.87e-06, "MEAN_MOTION_DDOT": 0}, "tle": {"line1": "1 40053U 14034A   25357.29080811  .00000587  00000+0  12970-3 0  9996", "line2": "2 40053  98.0893  59.1230 0001550  82.5656 277.5721 14.60746445611453"}}, "geometry": {"type": "Point", "coordinates": [108.84190680609957, -79.39043859359474]}}, {"type": "Feature", "properties": {"norad_id": 40072, "name": "SKYSAT-B", "group": "resource", "lat": 7.175209539798014, "lon": 122.95978372039912, "alt_km": 605.3919139398022, "timestamp": "2025-12-23T14:49:08.986650+00:00", "meta": {"OBJECT_NAME": "SKYSAT-B", "OBJECT_ID": "2014-037D", "EPOCH": "2025-12-22T20:17:08.751552", "MEAN_MOTION": 14.87361186, "ECCENTRICITY": 0.00067533, "INCLINATION": 98.3626, "RA_OF_ASC_NODE": 301.0856, "ARG_OF_PERICENTER": 121.7869, "MEAN_ANOMALY": 238.4005, "EPHEMERIS_TYPE": 0, "CLASSIFICATION_TYPE": "U", "NORAD_CAT_ID": 40072, "ELEMENT_SET_NO": 999, "REV_AT_EPOCH": 61974, "BSTAR": 0.0001702773, "MEAN_MOTION_DOT": 1.478e-05, "MEAN_MOTION_DDOT": 0}, "tle": {"line1": "1 40072U 14037D   25356.84524018  .00001478  00000+0  17028-3 0  9991", "line2": "2 40072  98.3626 301.0856 0006753 121.7869 238.4005 14.87361186619741"}}, "geometry": {"type": "Point", "coordinates": [122.95978372039912, 7.175209539798014]}}, {"type": "Feature", "properties": {"norad_id": 40115, "name": "WORLDVIEW-3 (WV-3)", "group": "resource", "lat": -26.0098484230047, "lon": 73.637716297148, "alt_km": 621.5640640546426, "timestamp": "2025-12-23T14:49:08.986661+00:00", "meta": {"OBJECT_NAME": "WORLDVIEW-3 (WV-3)", "OBJECT_ID": "2014-048A", "EPOCH": "2025-12-23T01:59:49.992864", "MEAN_MOTION": 14.84670573, "ECCENTRICITY": 0.00019351, "INCLINATION": 97.8766, "RA_OF_ASC_NODE": 69.2366, "ARG_OF_PERICENTER": 132.1702, "MEAN_ANOMALY": 227.9678, "EPHEMERIS_TYPE": 0, "CLASSIFICATION_TYPE": "U", "NORAD_CAT_ID": 40115, "ELEMENT_SET_NO": 999, "REV_AT_EPOCH": 61577, "BSTAR": 0.00012533482, "MEAN_MOTION_DOT": 1.007e-05, "MEAN_MOTION_DDOT": 0}, "tle": {"line1": "1 40115U 14048A   25357.08321751  .00001007  00000+0  12533-3 0  9991", "line2": "2 40115  97.8766  69.2366 0001935 132.1702 227.9678 14.84670573615774"}}, "geometry": {"type": "Point", "coordinates": [73.637716297148, -26.0098484230047]}}]}